OBJECT_NAME,OBJECT_ID,EPOCH,MEAN_MOTION,ECCENTRICITY,INCLINATION,RA_OF_ASC_NODE,ARG_OF_PERICENTER,MEAN_ANOMALY,EPHEMERIS_TYPE,CLASSIFICATION_TYPE,NORAD_CAT_ID,ELEMENT_SET_NO,REV_AT_EPOCH,BSTAR,MEAN_MOTION_DOT,MEAN_MOTION_DDOT
STARLINK-31213,2024-019H,2026-06-28T12:34:30.099936,15.27584270,.00019123,43.0030,342.9395,271.0514,89.0119,0,U,58860,999,13603,.1452273E-3,.3737E-4,0
STARLINK-31199,2024-019J,2026-06-28T12:28:58.023264,15.27573972,.00013382,43.0025,342.9099,257.0748,102.9954,0,U,58861,999,13603,.15041932E-3,.3879E-4,0
STARLINK-31200,2024-019K,2026-06-28T12:30:49.216608,15.27570587,.00015915,43.0034,342.9201,250.2391,109.8289,0,U,58862,999,13603,.67059603E-4,.1583E-4,0
STARLINK-31149,2024-019L,2026-06-28T11:51:58.752864,15.27551762,.00013322,43.0041,342.7227,268.2907,91.7792,0,U,58863,999,13603,.14918399E-3,.3842E-4,0
STARLINK-31242,2024-019M,2026-06-28T12:40:04.340928,15.27581096,.00016606,43.0017,342.9703,269.0366,91.0295,0,U,58864,999,13603,.49632528E-4,.1104E-4,0
STARLINK-31223,2024-019N,2026-06-28T12:41:55.394304,15.27582636,.00018455,43.0039,342.9842,259.4698,100.5946,0,U,58865,999,13601,.19714952E-4,.28E-5,0
STARLINK-31219,2024-019P,2026-06-28T12:06:45.914112,15.27569432,.00007214,43.0028,342.7984,267.4236,92.6534,0,U,58866,999,13601,.58748258E-4,.1355E-4,0
STARLINK-31198,2024-019Q,2026-06-28T04:28:56.788032,15.27548530,.00009493,43.0047,344.6939,276.3823,83.6920,0,U,58867,999,13596,.17121213E-3,.4448E-4,0
STARLINK-31196,2024-019R,2026-06-28T11:42:55.716768,15.27566905,.00015197,43.0031,343.5291,271.1145,88.9532,0,U,58868,999,13600,-.1204748E-4,-.594E-5,0
STARLINK-31203,2024-019S,2026-06-27T22:16:42.088224,15.27554767,.00032466,43.0023,342.7281,260.0767,99.9718,0,U,58869,999,13598,-.51425059E-4,-.1677E-4,0
STARLINK-31201,2024-019T,2026-06-28T11:55:39.745056,15.27581872,.00018083,43.0070,342.7418,267.0002,93.0643,0,U,58870,999,13601,.85486348E-4,.2091E-4,0
STARLINK-31214,2024-019U,2026-06-28T12:14:10.131072,15.27556547,.00018102,43.0043,342.8244,277.5622,82.5024,0,U,58871,999,13601,.15399025E-3,.3975E-4,0
STARLINK-31215,2024-019V,2026-06-28T12:17:52.162656,15.27568731,.00012854,43.0037,342.8553,269.7073,90.3632,0,U,58872,999,13601,.11336023E-3,.2857E-4,0
STARLINK-31177,2024-019W,2026-06-28T12:10:26.220288,15.27591907,.00013047,43.0036,342.8119,271.4822,88.5881,0,U,58873,999,13603,.16088227E-3,.4169E-4,0
STARLINK-30945,2024-019X,2026-06-28T11:24:24.908256,15.27568329,.00011449,43.0001,343.4263,285.6842,74.3883,0,U,58874,999,13602,.12388334E-3,.3147E-4,0
STARLINK-31212,2024-019Y,2026-06-28T12:01:12.835200,15.27569911,.00008804,43.0010,342.7692,290.2011,69.8746,0,U,58875,999,13601,.87894535E-4,.2157E-4,0
STARLINK-31306,2024-020A,2026-06-28T05:47:11.014944,15.34387920,.00012732,53.1595,167.7465,84.0924,276.0223,0,U,58876,999,13619,.19889211E-4,.296E-5,0
STARLINK-31326,2024-020B,2026-06-28T06:08:22.121376,15.31687974,.00010386,53.1597,168.5426,83.5163,276.5957,0,U,58877,999,13500,-.38119704E-4,-.1547E-4,0
STARLINK-31300,2024-020C,2026-06-28T06:53:41.642592,15.34392498,.00015629,53.1574,167.3251,68.9497,291.1673,0,U,58878,999,13502,-.15264416E-3,-.5529E-4,0
STARLINK-31296,2024-020D,2026-06-28T14:13:34.032000,15.30170634,.0001367,53.1602,141.5160,98.5448,261.5708,0,U,58879,999,13541,-.11891462E-3,-.3876E-4,0
STARLINK-31328,2024-020E,2026-06-28T04:47:43.043136,15.30190093,.00013794,53.1598,153.9006,85.1902,274.9256,0,U,58880,999,13520,.30875354E-4,.555E-5,0
STARLINK-31260,2024-020F,2026-06-28T05:50:12.783264,15.34393233,.00011312,53.1589,167.7579,80.6387,279.4743,0,U,58881,999,13501,-.9613726E-5,-.701E-5,0
STARLINK-31323,2024-020G,2026-06-28T06:56:46.290624,15.34374692,.00009819,53.1599,167.3388,75.0048,285.1064,0,U,58882,999,13502,.4062609E-5,-.239E-5,0
STARLINK-31209,2024-020H,2026-06-28T06:26:26.761920,15.34388722,.00010538,53.1582,167.2089,79.8286,280.2835,0,U,58883,999,13502,.30997604E-4,.671E-5,0
STARLINK-31315,2024-020J,2026-06-28T14:05:55.218624,15.30200292,.00012545,53.1607,141.3605,101.9332,258.1809,0,U,58884,999,13541,.10073463E-4,-.61E-6,0
STARLINK-31318,2024-020K,2026-06-28T04:27:41.202720,15.31721676,.0001189,53.1566,168.8091,91.1870,268.9267,0,U,58885,999,13499,.16785E-3,.485E-4,0
STARLINK-31320,2024-020L,2026-06-28T06:17:21.290208,15.34392051,.00013399,53.1606,167.1693,95.1807,264.9349,0,U,58886,999,13502,.30047822E-4,.639E-5,0
STARLINK-31321,2024-020M,2026-06-28T05:44:09.935232,15.34390410,.00013499,53.1592,167.7313,74.4868,285.6283,0,U,58887,999,13617,.35045914E-4,.808E-5,0
STARLINK-31007,2024-020P,2026-06-28T06:50:41.254080,15.34382184,.00007567,53.1588,167.3090,18.8618,341.2413,0,U,58889,999,13502,.1061784E-4,-.17E-6,0
STARLINK-31230,2024-020Q,2026-06-28T06:28:40.159200,15.34390980,.0001248,53.1594,165.1114,94.9528,265.1617,0,U,58890,999,13505,.35397874E-4,.82E-5,0
