STARLINK-31213          
1 58860U 24019H   26179.52395949  .00003737  00000+0  14523-3 0  9991
2 58860  43.0030 342.9395 0001912 271.0514  89.0119 15.27584270136039
STARLINK-31199          
1 58861U 24019J   26179.52011601  .00003879  00000+0  15042-3 0  9996
2 58861  43.0025 342.9099 0001338 257.0748 102.9954 15.27573972136039
STARLINK-31200          
1 58862U 24019K   26179.52140297  .00001583  00000+0  67060-4 0  9999
2 58862  43.0034 342.9201 0001591 250.2391 109.8289 15.27570587136031
STARLINK-31149          
1 58863U 24019L   26179.49443001  .00003842  00000+0  14918-3 0  9998
2 58863  43.0041 342.7227 0001332 268.2907  91.7792 15.27551762136033
STARLINK-31242          
1 58864U 24019M   26179.52782802  .00001104  00000+0  49633-4 0  9990
2 58864  43.0017 342.9703 0001660 269.0366  91.0295 15.27581096136034
STARLINK-31223          
1 58865U 24019N   26179.52911336  .00000280  00000+0  19715-4 0  9999
2 58865  43.0039 342.9842 0001845 259.4698 100.5946 15.27582636136017
STARLINK-31219          
1 58866U 24019P   26179.50469808  .00001355  00000+0  58748-4 0  9993
2 58866  43.0028 342.7984 0000721 267.4236  92.6534 15.27569432136013
STARLINK-31198          
1 58867U 24019Q   26179.18676838  .00004448  00000+0  17121-3 0  9996
2 58867  43.0047 344.6939 0000949 276.3823  83.6920 15.27548530135967
STARLINK-31196          
1 58868U 24019R   26179.48814487 -.00000594  00000+0 -12047-4 0  9997
2 58868  43.0031 343.5291 0001519 271.1145  88.9532 15.27566905136003
STARLINK-31203          
1 58869U 24019S   26178.92826491 -.00001677  00000+0 -51425-4 0  9990
2 58869  43.0023 342.7281 0003246 260.0767  99.9718 15.27554767135988
STARLINK-31201          
1 58870U 24019T   26179.49698779  .00002091  00000+0  85486-4 0  9994
2 58870  43.0070 342.7418 0001808 267.0002  93.0643 15.27581872136019
STARLINK-31214          
1 58871U 24019U   26179.50983948  .00003975  00000+0  15399-3 0  9999
2 58871  43.0043 342.8244 0001810 277.5622  82.5024 15.27556547136012
STARLINK-31215          
1 58872U 24019V   26179.51240929  .00002857  00000+0  11336-3 0  9991
2 58872  43.0037 342.8553 0001285 269.7073  90.3632 15.27568731136018
STARLINK-31177          
1 58873U 24019W   26179.50724792  .00004169  00000+0  16088-3 0  9993
2 58873  43.0036 342.8119 0001304 271.4822  88.5881 15.27591907136038
STARLINK-30945          
1 58874U 24019X   26179.47528829  .00003147  00000+0  12388-3 0  9997
2 58874  43.0001 343.4263 0001144 285.6842  74.3883 15.27568329136025
STARLINK-31212          
1 58875U 24019Y   26179.50084300  .00002157  00000+0  87895-4 0  9999
2 58875  43.0010 342.7692 0000880 290.2011  69.8746 15.27569911136014
STARLINK-31306          
1 58876U 24020A   26179.24109971  .00000296  00000+0  19889-4 0  9995
2 58876  53.1595 167.7465 0001273  84.0924 276.0223 15.34387920136194
STARLINK-31326          
1 58877U 24020B   26179.25581159 -.00001547  00000+0 -38120-4 0  9990
2 58877  53.1597 168.5426 0001038  83.5163 276.5957 15.31687974135008
STARLINK-31300          
1 58878U 24020C   26179.28728753 -.00005529  00000+0 -15264-3 0  9994
2 58878  53.1574 167.3251 0001562  68.9497 291.1673 15.34392498135023
STARLINK-31296          
1 58879U 24020D   26179.59275500 -.00003876  00000+0 -11891-3 0  9991
2 58879  53.1602 141.5160 0001367  98.5448 261.5708 15.30170634135412
STARLINK-31328          
1 58880U 24020E   26179.19980374  .00000555  00000+0  30875-4 0  9994
2 58880  53.1598 153.9006 0001379  85.1902 274.9256 15.30190093135208
STARLINK-31260          
1 58881U 24020F   26179.24320351 -.00000701  00000+0 -96137-5 0  9993
2 58881  53.1589 167.7579 0001131  80.6387 279.4743 15.34393233135015
STARLINK-31323          
1 58882U 24020G   26179.28942466 -.00000239  00000+0  40626-5 0  9992
2 58882  53.1599 167.3388 0000981  75.0048 285.1064 15.34374692135024
STARLINK-31209          
1 58883U 24020H   26179.26836530  .00000671  00000+0  30998-4 0  9994
2 58883  53.1582 167.2089 0001053  79.8286 280.2835 15.34388722135022
STARLINK-31315          
1 58884U 24020J   26179.58744466 -.00000061  00000+0  10073-4 0  9992
2 58884  53.1607 141.3605 0001254 101.9332 258.1809 15.30200292135419
STARLINK-31318          
1 58885U 24020K   26179.18589355  .00004850  00000+0  16785-3 0  9997
2 58885  53.1566 168.8091 0001189  91.1870 268.9267 15.31721676134995
STARLINK-31320          
1 58886U 24020L   26179.26205197  .00000639  00000+0  30048-4 0  9996
2 58886  53.1606 167.1693 0001339  95.1807 264.9349 15.34392051135028
STARLINK-31321          
1 58887U 24020M   26179.23900388  .00000808  00000+0  35046-4 0  9999
2 58887  53.1592 167.7313 0001349  74.4868 285.6283 15.34390410136177
STARLINK-31007          
1 58889U 24020P   26179.28519970 -.00000017  00000+0  10618-4 0  9990
2 58889  53.1588 167.3090 0000756  18.8618 341.2413 15.34382184135024
STARLINK-31230          
1 58890U 24020Q   26179.26990925  .00000820  00000+0  35398-4 0  9996
2 58890  53.1594 165.1114 0001248  94.9528 265.1617 15.34390980135054
